                          Satellite_833_101                          


                          Satellite_833_713                          
---------------------------------------------------------------------
1 99999U          21305.00000000 -.00000548  00000-0 -21373-3 0 00007
2 99999 028.8969 269.8002 0005008 266.0587 233.2711 14.28724640000011


                          Satellite_833_714                          
---------------------------------------------------------------------
1 99999U          21305.00000000 -.00000556  00000-0 -21678-3 0 00004
2 99999 028.8969 269.8002 0004996 265.9968 244.2420 14.28724681000011


                          Satellite_833_715                          
---------------------------------------------------------------------
1 99999U          21305.00000000 -.00000541  00000-0 -21100-3 0 00008
2 99999 028.8969 269.8002 0004986 265.9117 255.2362 14.28724699000012


                          Satellite_833_716                          
---------------------------------------------------------------------
1 99999U          21305.00000000 -.00000501  00000-0 -19565-3 0 00006
2 99999 028.8970 269.8002 0004977 265.8074 266.2495 14.28724689000013


                          Satellite_833_717                          
---------------------------------------------------------------------
1 99999U          21305.00000000 -.00000438  00000-0 -17106-3 0 00004
2 99999 028.8970 269.8002 0004971 265.6885 277.2775 14.28724652000018


                          Satellite_833_718                          
---------------------------------------------------------------------
1 99999U          21305.00000000 -.00000355  00000-0 -13861-3 0 00006
2 99999 028.8970 269.8002 0004966 265.5593 288.3158 14.28724588000013


                          Satellite_833_719                          
---------------------------------------------------------------------
1 99999U          21305.00000000 -.00000258  00000-0 -10069-3 0 00005
2 99999 028.8970 269.8002 0004963 265.4239 299.3603 14.28724502000019


                          Satellite_833_720                          
---------------------------------------------------------------------
1 99999U          21305.00000000 -.00000155  00000-0 -60352-4 0 00002
2 99999 028.8970 269.8003 0004963 265.2860 310.4073 14.28724402000013


                          Satellite_833_721                          
---------------------------------------------------------------------
1 99999U          21305.00000000 -.00000053  00000-0 -20850-4 0 00008
2 99999 028.8970 269.8003 0004964 265.1490 321.4535 14.28724295000017


                          Satellite_833_722                          
---------------------------------------------------------------------
1 99999U          21305.00000000  .00000038  00000-0  14772-4 0 00005
2 99999 028.8970 269.8003 0004968 265.0162 332.4954 14.28724190000017


                          Satellite_833_723                          
---------------------------------------------------------------------
1 99999U          21305.00000000  .00000113  00000-0  44004-4 0 00000
2 99999 028.8970 269.8004 0004974 264.8914 343.5294 14.28724095000011


                          Satellite_833_724                          
---------------------------------------------------------------------
1 99999U          21305.00000000  .00000167  00000-0  65065-4 0 00009
2 99999 028.8969 269.8004 0004981 264.7787 354.5513 14.28724014000011


                          Satellite_833_725                          
---------------------------------------------------------------------
1 99999U          21305.00000000  .00000197  00000-0  77011-4 0 00006
2 99999 028.8969 269.8004 0004991 264.6823 005.5569 14.28723952000016


                          Satellite_833_726                          
---------------------------------------------------------------------
1 99999U          21305.00000000  .00000204  00000-0  79779-4 0 00008
2 99999 028.8969 269.8003 0005002 264.6067 016.5417 14.28723912000019


                          Satellite_833_727                          
---------------------------------------------------------------------
1 99999U          21305.00000000  .00000190  00000-0  74136-4 0 00004
2 99999 028.8969 269.8003 0005014 264.5559 027.5016 14.28723894000013


                          Satellite_833_728                          
---------------------------------------------------------------------
1 99999U          21305.00000000  .00000158  00000-0  61561-4 0 00006
2 99999 028.8969 269.8003 0005027 264.5330 038.4337 14.28723895000012


                          Satellite_833_729                          
---------------------------------------------------------------------
1 99999U          21305.00000000  .00000113  00000-0  44025-4 0 00003
2 99999 028.8969 269.8002 0005040 264.5398 049.3360 14.28723911000016


                          Satellite_833_730                          
---------------------------------------------------------------------
1 99999U          21305.00000000  .00000061  00000-0  23752-4 0 00009
2 99999 028.8969 269.8002 0005053 264.5766 060.2083 14.28723937000011


                          Satellite_833_731                          
---------------------------------------------------------------------
1 99999U          21305.00000000  .00000008  00000-0  29580-5 0 00006
2 99999 028.8969 269.8002 0005065 264.6421 071.0519 14.28723969000012


                          Satellite_833_732                          
---------------------------------------------------------------------
1 99999U          21305.00000000 -.00000042  00000-0 -16441-4 0 00007
2 99999 028.8969 269.8002 0005076 264.7337 081.8694 14.28724002000013


                          Satellite_833_733                          
---------------------------------------------------------------------
1 99999U          21305.00000000 -.00000085  00000-0 -33114-4 0 00000
2 99999 028.8970 269.8002 0005085 264.8474 092.6648 14.28724032000010


                          Satellite_833_801                          
---------------------------------------------------------------------
1 99999U          21305.00000000 -.00000123  00000-0 -47820-4 0 00002
2 99999 028.9312 314.9541 0005098 264.9984 104.6107 14.28722667000018


                          Satellite_833_802                          
---------------------------------------------------------------------
1 99999U          21305.00000000 -.00000149  00000-0 -58050-4 0 00007
2 99999 028.9312 314.9541 0005103 265.1425 115.3756 14.28722688000010


                          Satellite_833_803                          
---------------------------------------------------------------------
1 99999U          21305.00000000 -.00000171  00000-0 -66607-4 0 00009
2 99999 028.9312 314.9542 0005104 265.2930 126.1341 14.28722708000017


                          Satellite_833_804                          
---------------------------------------------------------------------
1 99999U          21305.00000000 -.00000192  00000-0 -75019-4 0 00009
2 99999 028.9312 314.9542 0005103 265.4445 136.8917 14.28722730000011


                          Satellite_833_805                          
---------------------------------------------------------------------
1 99999U          21305.00000000 -.00000217  00000-0 -84780-4 0 00002
2 99999 028.9312 314.9542 0005100 265.5916 147.6536 14.28722758000019


                          Satellite_833_806                          
---------------------------------------------------------------------
1 99999U          21305.00000000 -.00000249  00000-0 -97002-4 0 00008
2 99999 028.9312 314.9543 0005094 265.7289 158.4253 14.28722796000015


                          Satellite_833_807                          
---------------------------------------------------------------------
1 99999U          21305.00000000 -.00000288  00000-0 -11219-3 0 00006
2 99999 028.9311 314.9543 0005086 265.8512 169.2121 14.28722845000014


                          Satellite_833_808                          
---------------------------------------------------------------------
1 99999U          21305.00000000 -.00000334  00000-0 -13017-3 0 00006
2 99999 028.9311 314.9543 0005076 265.9535 180.0188 14.28722905000010


                          Satellite_833_809                          
---------------------------------------------------------------------
1 99999U          21305.00000000 -.00000385  00000-0 -15007-3 0 00003
2 99999 028.9311 314.9543 0005064 266.0315 190.8498 14.28722975000015


                          Satellite_833_810                          
---------------------------------------------------------------------
1 99999U          21305.00000000 -.00000437  00000-0 -17043-3 0 00003
2 99999 028.9311 314.9542 0005052 266.0819 201.7084 14.28723050000018


                          Satellite_833_811                          
---------------------------------------------------------------------
1 99999U          21305.00000000 -.00000485  00000-0 -18936-3 0 00008
2 99999 028.9311 314.9542 0005038 266.1027 212.5966 14.28723125000016


                          Satellite_833_812                          
---------------------------------------------------------------------
1 99999U          21305.00000000 -.00000525  00000-0 -20477-3 0 00006
2 99999 028.9311 314.9541 0005025 266.0936 223.5149 14.28723195000011


                          Satellite_833_813                          
---------------------------------------------------------------------
1 99999U          21305.00000000 -.00000550  00000-0 -21451-3 0 00007
2 99999 028.9311 314.9541 0005012 266.0555 234.4619 14.28723252000011


                          Satellite_833_814                          
---------------------------------------------------------------------
1 99999U          21305.00000000 -.00000555  00000-0 -21670-3 0 00005
2 99999 028.9311 314.9541 0005001 265.9911 245.4354 14.28723291000014
